     2.100          NAVIGATION                              RINEX VERSION / TYPE
fic2rin                                 03/27/2010 00:33:20 PGM / RUN BY / DATE
                                                            END OF HEADER
16 10  3 26 16  0  0.0 -.550984404981D-04 -.386535248253D-11  .000000000000D+00
     .790000000000D+02 -.829062500000D+02  .451661670664D-08  .273778480837D+01
    -.424496829510D-05  .583236687817D-02  .474601984024D-05  .515373377800D+04
     .489600000000D+06 -.949949026108D-07 -.157316478970D+01  .106170773506D-06
     .971013193203D+00  .292687500000D+03 -.260778596235D+00 -.826570144250D-08
    -.219652006531D-09  .100000000000D+01  .157600000000D+04  .000000000000D+00
     .240000000000D+01  .000000000000D+00 -.977888703346D-08  .790000000000D+02
     .482406000000D+06  .400000000000D+01
17 10  3 26 16  0  0.0  .139827374369D-03  .272848410532D-11  .000000000000D+00
     .820000000000D+02 -.630000000000D+02  .427196365872D-08  .148442018671D+01
    -.321306288242D-05  .529095204547D-02  .130478292704D-04  .515359222794D+04
     .489600000000D+06 -.633299350739D-07 -.529870064998D+00  .108033418655D-06
     .960380373983D+00  .124312500000D+03 -.254088345335D+01 -.794533095493D-08
     .117147736816D-09  .100000000000D+01  .157600000000D+04  .000000000000D+00
     .240000000000D+01  .000000000000D+00 -.102445483208D-07  .820000000000D+02
     .482406000000D+06  .400000000000D+01
18 10  3 26 16  0  0.0  .577461905777D-04  .250111042988D-11  .000000000000D+00
     .450000000000D+02 -.328125000000D+02  .532772192100D-08  .297034850445D+01
    -.178068876266D-05  .110759817762D-01  .602006912231D-05  .515367597771D+04
     .489600000000D+06 -.912696123123D-07  .156606116380D+01 -.175088644028D-06
     .937786340097D+00  .249562500000D+03 -.234966056847D+01 -.839784980415D-08
    -.461447792581D-09  .100000000000D+01  .157600000000D+04  .000000000000D+00
     .240000000000D+01  .000000000000D+00 -.107102096081D-07  .450000000000D+02
     .482406000000D+06  .400000000000D+01
19 10  3 26 16  0  0.0 -.239289365709D-04 -.250111042988D-11  .000000000000D+00
     .110000000000D+03 -.404687500000D+02  .437125350883D-08  .888172086401D+00
    -.208616256714D-05  .629814155400D-02  .128857791424D-04  .515372302246D+04
     .489600000000D+06  .104308128357D-06 -.474686094501D+00  .931322574615D-07
     .958059527596D+00  .128593750000D+03 -.175314723088D+00 -.794818821680D-08
     .165364030933D-09  .100000000000D+01  .157600000000D+04  .000000000000D+00
     .240000000000D+01  .000000000000D+00 -.149011611938D-07  .110000000000D+03
     .482406000000D+06  .400000000000D+01
20 10  3 26 16  0  0.0  .588335096836D-04 -.682121026330D-12  .000000000000D+00
     .105000000000D+03 -.265625000000D+02  .549594321381D-08  .311283792057D+01
    -.131502747536D-05  .435688463040D-02  .571645796299D-05  .515364085197D+04
     .489600000000D+06  .121071934700D-06  .151210316546D+01 -.819563865662D-07
     .937633495879D+00  .254281250000D+03  .130637243275D+01 -.858857203421D-08
    -.448947271884D-09  .100000000000D+01  .157600000000D+04  .000000000000D+00
     .240000000000D+01  .000000000000D+00 -.791624188423D-08  .105000000000D+03
     .482406000000D+06  .400000000000D+01
21 10  3 26 16  0  0.0 -.492660328746D-04 -.250111042988D-11  .000000000000D+00
     .470000000000D+02  .556250000000D+02  .546915638374D-08 -.219483705303D+01
     .255368649960D-05  .161938391393D-01  .692345201969D-05  .515369139099D+04
     .489600000000D+06  .219792127609D-06  .508639801381D+00 -.158324837685D-06
     .933120997789D+00  .230281250000D+03 -.250867485706D+01 -.843642283945D-08
     .618954353362D-09  .100000000000D+01  .157600000000D+04  .000000000000D+00
     .240000000000D+01  .000000000000D+00 -.121071934700D-07  .470000000000D+02
     .482406000000D+06  .400000000000D+01
22 10  3 26 16  0  0.0  .176013447344D-03 -.102318153949D-11  .000000000000D+00
     .640000000000D+02 -.305625000000D+02  .545201281250D-08  .199459967426D+01
    -.168383121490D-05  .510960188694D-02  .600144267082D-05  .515365456200D+04
     .489600000000D+06 -.316649675369D-07  .157110615821D+01 -.931322574615D-07
     .935465408861D+00  .251687500000D+03 -.191743849027D+01 -.854785605251D-08
    -.433946647048D-09  .100000000000D+01  .157600000000D+04  .000000000000D+00
     .340000000000D+01  .000000000000D+00 -.176951289177D-07  .640000000000D+02
     .482406000000D+06  .400000000000D+01
23 10  3 26 16  0  0.0  .376225449145D-03 -.113686837722D-11  .000000000000D+00
     .880000000000D+02  .389062500000D+02  .406552648835D-08  .345879869045D+00
     .180490314960D-05  .644726748578D-02  .123325735331D-04  .515371699142D+04
     .489600000000D+06  .875443220139D-07  .259768813959D+01 -.130385160446D-07
     .968539316807D+00  .142937500000D+03  .300384595790D+01 -.791925844033D-08
    -.302155443130D-09  .100000000000D+01  .157600000000D+04  .000000000000D+00
     .240000000000D+01  .000000000000D+00 -.200234353542D-07  .880000000000D+02
     .482406000000D+06  .400000000000D+01
24 10  3 26 16  0  0.0  .273794401437D-03  .329691829393D-11  .000000000000D+00
     .210000000000D+02  .574375000000D+02  .511878464650D-08  .207843184662D+01
     .290572643280D-05  .577022531070D-02  .707246363163D-05  .515488670731D+04
     .489600000000D+06  .115483999252D-06  .546001106749D+00  .111758708954D-06
     .949699971890D+00  .236250000000D+03 -.477517616331D+00 -.837177728956D-08
     .362515100209D-09  .100000000000D+01  .157600000000D+04  .000000000000D+00
     .240000000000D+01  .000000000000D+00 -.139698386192D-08  .210000000000D+02
     .482406000000D+06  .400000000000D+01
26 10  3 26 16  0  0.0 -.321445986629D-04 -.420641299570D-11  .000000000000D+00
     .140000000000D+02  .368750000000D+02  .354121893455D-08 -.125439441358D+01
     .215321779251D-05  .193807288306D-01  .111851841211D-04  .515234547424D+04
     .489600000000D+06  .316649675369D-06  .265375280432D+01  .359490513802D-06
     .991184867354D+00  .179718750000D+03  .107121298018D+01 -.760531679197D-08
    -.227509476683D-09  .100000000000D+01  .157600000000D+04  .000000000000D+00
     .240000000000D+01  .000000000000D+00 -.605359673500D-08  .140000000000D+02
     .482406000000D+06  .400000000000D+01
27 10  3 26 16  0  0.0  .137517228723D-03  .329691829393D-11  .000000000000D+00
     .630000000000D+02  .759062500000D+02  .429696470011D-08  .109095148283D+01
     .347383320332D-05  .216319269966D-01  .655464828014D-05  .515364802933D+04
     .489600000000D+06 -.217929482460D-06 -.270066850228D+01 -.417232513428D-06
     .977966224859D+00  .265531250000D+03 -.144219552430D+01 -.834106172442D-08
     .263582407837D-09  .100000000000D+01  .157600000000D+04  .000000000000D+00
     .340000000000D+01  .000000000000D+00 -.419095158577D-08  .630000000000D+02
     .482406000000D+06  .400000000000D+01
28 10  3 26 16  0  0.0 -.197766348720D-04  .795807864051D-12  .000000000000D+00
     .230000000000D+02 -.982187500000D+02  .445339978769D-08  .214776590687D+01
    -.524707138538D-05  .159150878899D-01  .417046248913D-05  .515366783142D+04
     .489600000000D+06  .931322574615D-07 -.156535898214D+01 -.301748514175D-06
     .969248930091D+00  .304312500000D+03 -.196259889865D+01 -.820069873488D-08
    -.227152318949D-09  .100000000000D+01  .157600000000D+04  .000000000000D+00
     .240000000000D+01  .000000000000D+00 -.107102096081D-07  .230000000000D+02
     .482406000000D+06  .400000000000D+01
30 10  3 26 16  0  0.0  .228050630540D-03  .341060513165D-11  .000000000000D+00
     .850000000000D+02 -.745000000000D+02  .472876840076D-08  .262417446013D+01
    -.385940074921D-05  .120274748188D-01  .370480120182D-05  .515376266670D+04
     .489600000000D+06  .108033418655D-06 -.164314853479D+01 -.651925802231D-07
     .955014647942D+00  .303375000000D+03  .147392081195D+01 -.824462913618D-08
    -.180007498035D-09  .100000000000D+01  .157600000000D+04  .000000000000D+00
     .240000000000D+01  .000000000000D+00 -.791624188423D-08  .850000000000D+02
     .482406000000D+06  .400000000000D+01
31 10  3 26 16  0  0.0 -.454788096249D-04  .193267624127D-11  .000000000000D+00
     .107000000000D+03  .735937500000D+02  .435589572626D-08 -.130999743403D+01
     .391155481339D-05  .755105679855D-02  .549294054508D-05  .515364909935D+04
     .489600000000D+06 -.447034835815D-07 -.264487498941D+01  .596046447754D-07
     .976412194779D+00  .287218750000D+03 -.107216988953D+01 -.827641617453D-08
     .387516141603D-09  .100000000000D+01  .157600000000D+04  .000000000000D+00
     .240000000000D+01  .000000000000D+00 -.130385160446D-07  .107000000000D+03
     .482406000000D+06  .400000000000D+01
 3 10  3 26 15 59 44.0  .533445738256D-03  .522959453519D-11  .000000000000D+00
     .340000000000D+02 -.616562500000D+02  .512807074759D-08  .249708652705D+00
    -.323355197906D-05  .129261316033D-01  .122468918562D-04  .515370928764D+04
     .489584000000D+06 -.147148966789D-06 -.671615378082D+00  .188127160072D-06
     .927188513878D+00  .128000000000D+03  .984603090659D+00 -.852964100807D-08
    -.928610108910D-11  .100000000000D+01  .157600000000D+04  .000000000000D+00
     .240000000000D+01  .000000000000D+00 -.419095158577D-08  .340000000000D+02
     .483486000000D+06  .400000000000D+01
27 10  3 26 15 59 28.0  .137524679303D-03  .341060513165D-11  .000000000000D+00
     .140000000000D+02  .759062500000D+02  .429696470011D-08  .108628400466D+01
     .347383320332D-05  .216319411993D-01  .655464828014D-05  .515364802170D+04
     .489568000000D+06 -.217929482460D-06 -.270066816581D+01 -.417232513428D-06
     .977966188286D+00  .265531250000D+03 -.144219558135D+01 -.834106172442D-08
     .263582407837D-09  .100000000000D+01  .157600000000D+04  .000000000000D+00
     .240000000000D+01  .000000000000D+00 -.419095158577D-08  .140000000000D+02
     .487236000000D+06  .400000000000D+01
